{
  "type": "FeatureCollection",
  "features": [
    {
      "type": "Feature",
      "properties": {
        "norad_id": 34852,
        "name": "COSMOS 2251 DEB",
        "group": "cosmos-2251-debris",
        "lat": -59.07854544381912,
        "lon": -131.19401476012885,
        "alt_km": 769.8616612582418,
        "timestamp": "2025-12-15T19:00:45.753963+00:00",
        "meta_object_name": "COSMOS 2251 DEB",
        "meta_object_id": "1993-036ABW",
        "meta_epoch": "2025-12-14T11:33:36.116064",
        "meta_mean_motion": 14.37006693,
        "meta_eccentricity": 0.00162936,
        "meta_inclination": 74.033,
        "meta_ra_of_asc_node": 259.7687,
        "meta_arg_of_pericenter": 2.5812,
        "meta_mean_anomaly": 357.5423,
        "meta_ephemeris_type": 0,
        "meta_classification_type": "U",
        "meta_norad_cat_id": 34852,
        "meta_element_set_no": 999,
        "meta_rev_at_epoch": 87559,
        "meta_bstar": 0.0001528022,
        "meta_mean_motion_dot": 4.27e-06,
        "meta_mean_motion_ddot": 0,
        "tle_line1": "1 34852U 93036ABW 25348.48166801  .00000427  00000+0  15280-3 0  9990",
        "tle_line2": "2 34852  74.0330 259.7687 0016293   2.5812 357.5423 14.37006693875596"
      },
      "geometry": {
        "type": "Point",
        "coordinates": [
          -131.19401476012885,
          -59.07854544381912
        ]
      }
    },
    {
      "type": "Feature",
      "properties": {
        "norad_id": 34854,
        "name": "COSMOS 2251 DEB",
        "group": "cosmos-2251-debris",
        "lat": -72.94342773291713,
        "lon": 83.62134326014231,
        "alt_km": 601.4908858088493,
        "timestamp": "2025-12-15T19:00:45.753973+00:00",
        "meta_object_name": "COSMOS 2251 DEB",
        "meta_object_id": "1993-036ABY",
        "meta_epoch": "2025-12-12T18:13:14.177568",
        "meta_mean_motion": 14.76625947,
        "meta_eccentricity": 0.00661438,
        "meta_inclination": 74.0288,
        "meta_ra_of_asc_node": 158.5442,
        "meta_arg_of_pericenter": 270.2181,
        "meta_mean_anomaly": 89.1414,
        "meta_ephemeris_type": 0,
        "meta_classification_type": "U",
        "meta_norad_cat_id": 34854,
        "meta_element_set_no": 999,
        "meta_rev_at_epoch": 71882,
        "meta_bstar": 0.0010403851,
        "meta_mean_motion_dot": 7.508e-05,
        "meta_mean_motion_ddot": 0,
        "tle_line1": "1 34854U 93036ABY 25346.75919187  .00007508  00000+0  10404-2 0  9992",
        "tle_line2": "2 34854  74.0288 158.5442 0066143 270.2181  89.1414 14.76625947718829"
      },
      "geometry": {
        "type": "Point",
        "coordinates": [
          83.62134326014231,
          -72.94342773291713
        ]
      }
    },
    {
      "type": "Feature",
      "properties": {
        "norad_id": 34856,
        "name": "COSMOS 2251 DEB",
        "group": "cosmos-2251-debris",
        "lat": -43.768409532637484,
        "lon": 62.61451458305584,
        "alt_km": 557.1054711519619,
        "timestamp": "2025-12-15T19:00:45.753984+00:00",
        "meta_object_name": "COSMOS 2251 DEB",
        "meta_object_id": "1993-036ACA",
        "meta_epoch": "2025-12-14T13:00:38.339424",
        "meta_mean_motion": 15.06185391,
        "meta_eccentricity": 0.00326586,
        "meta_inclination": 73.9962,
        "meta_ra_of_asc_node": 81.1429,
        "meta_arg_of_pericenter": 218.971,
        "meta_mean_anomaly": 159.1858,
        "meta_ephemeris_type": 0,
        "meta_classification_type": "U",
        "meta_norad_cat_id": 34856,
        "meta_element_set_no": 999,
        "meta_rev_at_epoch": 89139,
        "meta_bstar": 0.0015675649,
        "meta_mean_motion_dot": 0.0002328,
        "meta_mean_motion_ddot": 0,
        "tle_line1": "1 34856U 93036ACA 25348.54211041  .00023280  00000+0  15676-2 0  9998",
        "tle_line2": "2 34856  73.9962  81.1429 0032658 218.9710 159.1858 15.06185391891397"
      },
      "geometry": {
        "type": "Point",
        "coordinates": [
          62.61451458305584,
          -43.768409532637484
        ]
      }
    },
    {
      "type": "Feature",
      "properties": {
        "norad_id": 34857,
        "name": "COSMOS 2251 DEB",
        "group": "cosmos-2251-debris",
        "lat": 15.133323978314566,
        "lon": -83.43940056685175,
        "alt_km": 674.1432361597335,
        "timestamp": "2025-12-15T19:00:45.753994+00:00",
        "meta_object_name": "COSMOS 2251 DEB",
        "meta_object_id": "1993-036ACB",
        "meta_epoch": "2025-12-14T18:15:50.086368",
        "meta_mean_motion": 14.58918556,
        "meta_eccentricity": 0.00657826,
        "meta_inclination": 74.0152,
        "meta_ra_of_asc_node": 102.9729,
        "meta_arg_of_pericenter": 227.1147,
        "meta_mean_anomaly": 283.9047,
        "meta_ephemeris_type": 0,
        "meta_classification_type": "U",
        "meta_norad_cat_id": 34857,
        "meta_element_set_no": 999,
        "meta_rev_at_epoch": 87930,
        "meta_bstar": 0.0010168968,
        "meta_mean_motion_dot": 4.884e-05,
        "meta_mean_motion_ddot": 0,
        "tle_line1": "1 34857U 93036ACB 25348.76099637  .00004884  00000+0  10169-2 0  9999",
        "tle_line2": "2 34857  74.0152 102.9729 0065782 227.1147 283.9047 14.58918556879302"
      },
      "geometry": {
        "type": "Point",
        "coordinates": [
          -83.43940056685175,
          15.133323978314566
        ]
      }
    },
    {
      "type": "Feature",
      "properties": {
        "norad_id": 34859,
        "name": "COSMOS 2251 DEB",
        "group": "cosmos-2251-debris",
        "lat": 14.212009808505671,
        "lon": -22.534210176523526,
        "alt_km": 518.4821545355799,
        "timestamp": "2025-12-15T19:00:45.754004+00:00",
        "meta_object_name": "COSMOS 2251 DEB",
        "meta_object_id": "1993-036ACD",
        "meta_epoch": "2025-12-13T10:27:28.319616",
        "meta_mean_motion": 15.14950815,
        "meta_eccentricity": 0.00020891,
        "meta_inclination": 74.0317,
        "meta_ra_of_asc_node": 338.2099,
        "meta_arg_of_pericenter": 342.6349,
        "meta_mean_anomaly": 143.1101,
        "meta_ephemeris_type": 0,
        "meta_classification_type": "U",
        "meta_norad_cat_id": 34859,
        "meta_element_set_no": 999,
        "meta_rev_at_epoch": 88369,
        "meta_bstar": 0.0080515741,
        "meta_mean_motion_dot": 0.00153394,
        "meta_mean_motion_ddot": 0,
        "tle_line1": "1 34859U 93036ACD 25347.43574444  .00153394  00000+0  80516-2 0  9992",
        "tle_line2": "2 34859  74.0317 338.2099 0002089 342.6349 143.1101 15.14950815883691"
      },
      "geometry": {
        "type": "Point",
        "coordinates": [
          -22.534210176523526,
          14.212009808505671
        ]
      }
    },
    {
      "type": "Feature",
      "properties": {
        "norad_id": 34861,
        "name": "COSMOS 2251 DEB",
        "group": "cosmos-2251-debris",
        "lat": 33.89443374865464,
        "lon": -146.48568871089597,
        "alt_km": 557.2776873466819,
        "timestamp": "2025-12-15T19:00:45.754014+00:00",
        "meta_object_name": "COSMOS 2251 DEB",
        "meta_object_id": "1993-036ACF",
        "meta_epoch": "2025-12-14T22:23:33.182880",
        "meta_mean_motion": 15.02732232,
        "meta_eccentricity": 0.00072969,
        "meta_inclination": 74.0188,
        "meta_ra_of_asc_node": 46.3699,
        "meta_arg_of_pericenter": 40.6265,
        "meta_mean_anomaly": 137.686,
        "meta_ephemeris_type": 0,
        "meta_classification_type": "U",
        "meta_norad_cat_id": 34861,
        "meta_element_set_no": 999,
        "meta_rev_at_epoch": 88125,
        "meta_bstar": 0.0015301121,
        "meta_mean_motion_dot": 0.00020479,
        "meta_mean_motion_ddot": 0,
        "tle_line1": "1 34861U 93036ACF 25348.93302295  .00020479  00000+0  15301-2 0  9991",
        "tle_line2": "2 34861  74.0188  46.3699 0007296  40.6265 137.6860 15.02732232881258"
      },
      "geometry": {
        "type": "Point",
        "coordinates": [
          -146.48568871089597,
          33.89443374865464
        ]
      }
    },
    {
      "type": "Feature",
      "properties": {
        "norad_id": 34874,
        "name": "COSMOS 2251 DEB",
        "group": "cosmos-2251-debris",
        "lat": 73.85379725123794,
        "lon": 149.46099075479205,
        "alt_km": 726.9920266332147,
        "timestamp": "2025-12-15T19:00:45.754024+00:00",
        "meta_object_name": "COSMOS 2251 DEB",
        "meta_object_id": "1993-036ACM",
        "meta_epoch": "2025-12-14T16:34:14.608704",
        "meta_mean_motion": 14.36321954,
        "meta_eccentricity": 0.00509023,
        "meta_inclination": 74.0398,
        "meta_ra_of_asc_node": 70.1822,
        "meta_arg_of_pericenter": 94.8958,
        "meta_mean_anomaly": 58.1509,
        "meta_ephemeris_type": 0,
        "meta_classification_type": "U",
        "meta_norad_cat_id": 34874,
        "meta_element_set_no": 999,
        "meta_rev_at_epoch": 87072,
        "meta_bstar": 0.00076670437,
        "meta_mean_motion_dot": 2.25e-05,
        "meta_mean_motion_ddot": 0,
        "tle_line1": "1 34874U 93036ACM 25348.69044686  .00002250  00000+0  76670-3 0  9999",
        "tle_line2": "2 34874  74.0398  70.1822 0050902  94.8958  58.1509 14.36321954870728"
      },
      "geometry": {
        "type": "Point",
        "coordinates": [
          149.46099075479205,
          73.85379725123794
        ]
      }
    }
  ]
}